NORAD_CAT_ID,OBJECT_NAME,OBJECT_TYPE,EPOCH,MEAN_MOTION,ECCENTRICITY,INCLINATION,RA_OF_ASC_NODE,ARG_OF_PERICENTER,MEAN_ANOMALY,BSTAR,MEAN_MOTION_DOT,MEAN_MOTION_DDOT,TLE_LINE0,TLE_LINE1,TLE_LINE2,SEMIMAJOR_AXIS,PERIOD,APOGEE,PERIGEE,DECAYED
55958.0,STARLINK-5928,PAYLOAD,2023-03-22 18:00:00,15.9522284,0.0039299,69.9998,167.7438,162.5507,301.7552,-0.0022906,-0.00974435,0.00029776,0 STARLINK-5928,1 55958U 23037AW  23081.75001157 -.00974435  29776-3 -22906-2 0  9996,2 55958  69.9998 167.7438 0039299 162.5507 301.7552 15.95222840  1303,6665.831,90.27,313.892,261.499,0.0
55958.0,STARLINK-5928,PAYLOAD,2023-03-22 22:00:00,15.94929949,0.0036678,69.9995,167.2575,162.4606,178.5768,-0.0025172,-0.01042379,0.00033621,0 STARLINK-5928,1 55958U 23037AW  23081.91667824 -.01042379  33621-3 -25172-2 0  9999,2 55958  69.9995 167.2575 0036678 162.4606 178.5768 15.94929949  1306,6666.647,90.286,312.964,264.06,0.0
55958.0,STARLINK-5928,PAYLOAD,2023-03-23 06:00:00,15.94246503,0.0034117,70.0003,166.2854,163.5458,290.4027,-0.0024747,-0.0097865,0.00029711,0 STARLINK-5928,1 55958U 23037AW  23082.25001157 -.00978650  29711-3 -24747-2 0  9999,2 55958  70.0003 166.2854 0034117 163.5458 290.4027 15.94246503  1378,6668.552,90.325,313.168,267.666,0.0
55958.0,STARLINK-5928,PAYLOAD,2023-03-23 14:00:01,15.93594951,0.0030225,70.0001,165.3145,164.3503,41.7824,-0.0026058,-0.00982536,0.00029729,0 STARLINK-5928,1 55958U 23037AW  23082.58335648 -.00982536  29729-3 -26058-2 0  9994,2 55958  70.0001 165.3145 0030225 164.3503  41.7824 15.93594951  1302,6670.369,90.362,312.395,272.073,0.0
55958.0,STARLINK-5928,PAYLOAD,2023-03-24 17:00:11,15.91388268,0.0018154,69.9999,162.044,173.9606,0.3922,-0.0029769,-0.00971957,0.00028497,0 STARLINK-5928,1 55958U 23037AW  23083.70846065 -.00971957  28497-3 -29769-2 0  9997,2 55958  69.9999 162.0440 0018154 173.9606   0.3922 15.91388268  1607,6676.534,90.487,310.52,286.279,0.0
55958.0,STARLINK-5928,PAYLOAD,2023-03-24 22:00:01,15.9100605,0.0016911,70.0001,161.4398,176.8689,109.9051,-0.0032117,-0.01025707,0.0003136,0 STARLINK-5928,1 55958U 23037AW  23083.91668981 -.01025707  31360-3 -32117-2 0  9997,2 55958  70.0001 161.4398 0016911 176.8689 109.9051 15.91006050  1303,6677.603,90.509,310.761,288.176,0.0
55958.0,STARLINK-5928,PAYLOAD,2023-03-25 06:00:00,15.90352572,0.0012294,70.0002,160.4736,186.8305,208.0829,-0.0033222,-0.01019913,0.00030834,0 STARLINK-5928,1 55958U 23037AW  23084.25001157 -.01019913  30834-3 -33222-2 0  9996,2 55958  70.0002 160.4736 0012294 186.8305 208.0829 15.90352572  1693,6679.432,90.546,309.509,293.086,0.0
55958.0,STARLINK-5928,PAYLOAD,2023-03-25 14:00:01,15.89679911,0.0010496,70.0002,159.5085,197.1001,305.2448,-0.0033055,-0.0097933,0.00028415,0 STARLINK-5928,1 55958U 23037AW  23084.58334491 -.00979330  28415-3 -33055-2 0  9995,2 55958  70.0002 159.5085 0010496 197.1001 305.2448 15.89679911  1749,6681.317,90.584,310.194,296.169,0.0
55958.0,STARLINK-5928,PAYLOAD,2023-03-25 22:00:00,15.89052507,0.0008695,69.9998,158.5432,215.7275,33.2503,-0.0035907,-0.0102891,0.00030945,0 STARLINK-5928,1 55958U 23037AW  23084.91667824 -.01028910  30945-3 -35907-2 0  9990,2 55958  69.9998 158.5432 0008695 215.7275  33.2503 15.89052507  1794,6683.075,90.62,310.751,299.129,0.0
55958.0,STARLINK-5928,PAYLOAD,2023-03-26 06:00:00,15.88405335,0.0008424,69.9998,157.5803,237.7234,117.112,-0.0037518,-0.01040682,0.00031407,0 STARLINK-5928,1 55958U 23037AW  23085.25001157 -.01040682  31407-3 -37518-2 0  9993,2 55958  69.9998 157.5803 0008424 237.7234 117.1120 15.88405335  1858,6684.89,90.657,312.387,301.124,0.0
55958.0,STARLINK-5928,PAYLOAD,2023-03-26 22:00:01,15.87076698,0.00091,69.9997,155.6559,266.985,297.2979,-0.0038254,-0.00904252,0.0,0 STARLINK-5928,1 55958U 23037AW  23085.91668981 -.00904252  00000-0 -38254-2 0  9991,2 55958  69.9997 155.6559 0009100 266.9850 297.2979 15.87076698  1952,6688.621,90.733,316.572,304.399,0.0
55958.0,STARLINK-5928,PAYLOAD,2023-03-27 14:00:01,15.85791961,0.0007259,69.9997,153.7351,271.5975,138.8536,-0.004223,-0.0093242,0.0,0 STARLINK-5928,1 55958U 23037AW  23086.58334491 -.00932420  00000-0 -42230-2 0  9998,2 55958  69.9997 153.7351 0007259 271.5975 138.8536 15.85791961  1307,6692.233,90.806,318.956,309.24,0.0
55958.0,STARLINK-5928,PAYLOAD,2023-03-27 22:00:00,15.85128718,0.0003717,70.0001,152.7761,272.7633,239.6401,-0.0042794,-0.00914168,0.0,0 STARLINK-5928,1 55958U 23037AW  23086.91667824 -.00914168  00000-0 -42794-2 0  9998,2 55958  70.0001 152.7761 0003717 272.7633 239.6401 15.85128718  2114,6694.099,90.844,318.453,313.476,0.0
55958.0,STARLINK-5928,PAYLOAD,2023-03-28 14:00:01,15.83819816,0.0003654,70.0,150.8614,267.5686,86.386,-0.0045214,-0.00907638,0.0,0 STARLINK-5928,1 55958U 23037AW  23087.58334491 -.00907638  00000-0 -45214-2 0  9997,2 55958  70.0000 150.8614 0003654 267.5686  86.3860 15.83819816  1309,6697.787,90.919,322.099,317.205,0.0
55958.0,STARLINK-5928,PAYLOAD,2023-03-28 22:00:00,15.83189587,0.0003674,69.9999,149.9048,278.121,175.4247,-0.0048296,-0.00937617,0.0,0 STARLINK-5928,1 55958U 23037AW  23087.91667824 -.00937617  00000-0 -48296-2 0  9996,2 55958  69.9999 149.9048 0003674 278.1210 175.4247 15.83189587  1300,6699.564,90.956,323.891,318.968,0.0
55958.0,STARLINK-5928,PAYLOAD,2023-03-29 02:00:01,15.82840402,0.0003672,70.0002,149.4272,273.6164,49.4473,-0.0047295,-0.00906414,0.0,0 STARLINK-5928,1 55958U 23037AW  23088.08334491 -.00906414  00000-0 -47295-2 0  9995,2 55958  70.0002 149.4272 0003672 273.6164  49.4473 15.82840402  2309,6700.55,90.976,324.875,319.954,0.0
55958.0,STARLINK-5928,PAYLOAD,2023-03-29 14:00:01,15.81863723,0.0003599,70.0003,147.9953,267.6385,22.7722,-0.0049579,-0.00907406,0.0,0 STARLINK-5928,1 55958U 23037AW  23088.58334491 -.00907406  00000-0 -49579-2 0  9999,2 55958  70.0003 147.9953 0003599 267.6385  22.7722 15.81863723  1305,6703.307,91.032,327.585,322.76,0.0
55958.0,STARLINK-5928,PAYLOAD,2023-03-29 22:00:00,15.81211059,0.0003736,70.0,147.0419,278.6776,108.9878,-0.0051097,-0.00907258,0.0,0 STARLINK-5928,1 55958U 23037AW  23088.91667824 -.00907258  00000-0 -51097-2 0  9998,2 55958  70.0000 147.0419 0003736 278.6776 108.9878 15.81211059  1307,6705.152,91.069,329.522,324.512,0.0
55958.0,STARLINK-5928,PAYLOAD,2023-03-30 00:00:00,15.81044186,0.0003589,69.9998,146.804,278.363,223.4953,-0.0051122,-0.00901248,0.0,0 STARLINK-5928,1 55958U 23037AW  23089.00001157 -.00901248  00000-0 -51122-2 0  9992,2 55958  69.9998 146.8040 0003589 278.3630 223.4953 15.81044186  2447,6705.624,91.079,329.895,325.082,0.0
55958.0,STARLINK-5928,PAYLOAD,2023-03-30 22:00:00,15.79253288,0.0003625,70.0002,144.187,268.1992,46.5364,-0.0055857,-0.00906371,0.0,0 STARLINK-5928,1 55958U 23037AW  23089.91667824 -.00906371  00000-0 -55857-2 0  9992,2 55958  70.0002 144.1870 0003625 268.1992  46.5364 15.79253288  2595,6710.692,91.182,334.99,330.125,0.0
55958.0,STARLINK-5928,PAYLOAD,2023-03-31 22:00:00,15.77299454,0.0003614,69.9998,141.3404,280.8485,313.9148,-0.0061324,-0.00910619,0.0,0 STARLINK-5928,1 55958U 23037AW  23090.91667824 -.00910619  00000-0 -61324-2 0  9990,2 55958  69.9998 141.3404 0003614 280.8485 313.9148 15.77299454  2745,6716.233,91.295,340.525,335.671,0.0
55958.0,STARLINK-5928,PAYLOAD,2023-04-01 14:00:01,15.75989087,0.0003605,70.0,139.4477,276.1808,141.3583,-0.0064136,-0.00899681,0.0,0 STARLINK-5928,1 55958U 23037AW  23091.58334491 -.00899681  00000-0 -64136-2 0  9994,2 55958  70.0000 139.4477 0003605 276.1808 141.3583 15.75989087  1300,6719.955,91.371,344.243,339.398,0.0
55958.0,STARLINK-5928,PAYLOAD,2023-04-01 22:00:00,15.75339017,0.0003585,70.0002,138.5023,283.1539,224.598,-0.0066241,-0.00902664,0.0,0 STARLINK-5928,1 55958U 23037AW  23091.91667824 -.00902664  00000-0 -66241-2 0  9995,2 55958  70.0002 138.5023 0003585 283.1539 224.5980 15.75339017  2909,6721.804,91.409,346.078,341.259,0.0
55958.0,STARLINK-5928,PAYLOAD,2023-04-02 14:00:01,15.7403459,0.0003646,70.0001,136.615,276.2136,49.6187,-0.0070064,-0.00902054,0.0,0 STARLINK-5928,1 55958U 23037AW  23092.58334491 -.00902054  00000-0 -70064-2 0  9991,2 55958  70.0001 136.6150 0003646 276.2136  49.6187 15.74034590  1307,6725.517,91.485,349.834,344.93,0.0
55958.0,STARLINK-5928,PAYLOAD,2023-04-02 22:00:00,15.73377764,0.0003734,70.0003,135.6724,282.8166,130.8847,-0.0071536,-0.00895935,0.0,0 STARLINK-5928,1 55958U 23037AW  23092.91667824 -.00895935  00000-0 -71536-2 0  9991,2 55958  70.0003 135.6724 0003734 282.8166 130.8847 15.73377764  1307,6727.388,91.523,351.765,346.741,0.0
55958.0,STARLINK-5928,PAYLOAD,2023-04-03 14:00:01,15.72076409,0.0003461,69.994,133.7821,274.9898,312.0949,-0.0075892,-0.00898548,0.0,0 STARLINK-5928,1 55958U 23037AW  23093.58334491 -.00898548  00000-0 -75892-2 0  9998,2 55958  69.9940 133.7821 0003461 274.9898 312.0949 15.72076409  3166,6731.1,91.599,355.295,350.636,0.0
55958.0,STARLINK-5928,PAYLOAD,2023-04-03 22:00:00,15.71390073,0.0003653,69.9942,132.8422,267.6967,44.9185,-0.0072758,-0.00842505,0.0,0 STARLINK-5928,1 55958U 23037AW  23093.91667824 -.00842505  00000-0 -72758-2 0  9994,2 55958  69.9942 132.8422 0003653 267.6967  44.9185 15.71390073  1306,6733.06,91.639,357.385,352.466,0.0
55958.0,STARLINK-5928,PAYLOAD,2023-04-04 08:00:01,15.70541325,0.0003909,69.995,131.6689,274.4053,234.085,-0.0067425,-0.00760863,0.0,0 STARLINK-5928,1 55958U 23037AW  23094.33335648 -.00760863  00000-0 -67425-2 0  9998,2 55958  69.9950 131.6689 0003909 274.4053 234.0850 15.70541325  3280,6735.486,91.688,359.984,354.718,0.0
55958.0,STARLINK-5928,PAYLOAD,2023-04-04 14:00:01,15.69978431,0.0004073,69.9952,130.9651,276.0702,205.2347,-0.00074012,-0.0008849,0.0,0 STARLINK-5928,1 55958U 23037AW  23094.58334491 -.00088490  00000-0 -74012-3 0  9990,2 55958  69.9952 130.9651 0004073 276.0702 205.2347 15.69978431  3321,6737.096,91.721,361.705,356.217,0.0
